{"type": "FeatureCollection", "features": [ {"type": "Feature", "properties": {"norad_id": 66601, "name": "STARLINK-35978", "group": "last-30-days", "lat": 36.015320157128194, "lon": 21.512332385489852, "alt_km": 325.6604493786763, "timestamp": "2025-12-02T15:49:05.950140+00:00", "meta": {"OBJECT_NAME": "STARLINK-35978", "OBJECT_ID": "2025-270P", "EPOCH": "2025-12-01T16:00:03.999744", "MEAN_MOTION": 15.83480446, "ECCENTRICITY": 0.00016728, "INCLINATION": 42.9985, "RA_OF_ASC_NODE": 258.8705, "ARG_OF_PERICENTER": 256.5646, "MEAN_ANOMALY": 325.8265, "EPHEMERIS_TYPE": 0, "CLASSIFICATION_TYPE": "U", "NORAD_CAT_ID": 66601, "ELEMENT_SET_NO": 999, "REV_AT_EPOCH": 246, "BSTAR": -0.0080290301, "MEAN_MOTION_DOT": -0.01587438, "MEAN_MOTION_DDOT": 0}, "tle": {"line1": "1 66601U 25270P   25335.66671296 -.01587438  00000+0 -80290-2 0  9994", "line2": "2 66601  42.9985 258.8705 0001672 256.5646 325.8265 15.83480446  2469"}}, "geometry": {"type": "Point", "coordinates": [21.512332385489852, 36.015320157128194]}}, {"type": "Feature", "properties": {"norad_id": 66602, "name": "STARLINK-36050", "group": "last-30-days", "lat": 35.06315632564911, "lon": 23.91183898834144, "alt_km": 325.8599100448255, "timestamp": "2025-12-02T15:49:05.950150+00:00", "meta": {"OBJECT_NAME": "STARLINK-36050", "OBJECT_ID": "2025-270Q", "EPOCH": "2025-12-01T16:00:03.999744", "MEAN_MOTION": 15.83486522, "ECCENTRICITY": 0.00015564, "INCLINATION": 42.9985, "RA_OF_ASC_NODE": 258.865, "ARG_OF_PERICENTER": 261.3844, "MEAN_ANOMALY": 323.1918, "EPHEMERIS_TYPE": 0, "CLASSIFICATION_TYPE": "U", "NORAD_CAT_ID": 66602, "ELEMENT_SET_NO": 999, "REV_AT_EPOCH": 252, "BSTAR": -0.0080766159, "MEAN_MOTION_DOT": -0.01595958, "MEAN_MOTION_DDOT": 0}, "tle": {"line1": "1 66602U 25270Q   25335.66671296 -.01595958  00000+0 -80766-2 0  9999", "line2": "2 66602  42.9985 258.8650 0001556 261.3844 323.1918 15.83486522  2528"}}, "geometry": {"type": "Point", "coordinates": [23.91183898834144, 35.06315632564911]}}, {"type": "Feature", "properties": {"norad_id": 66603, "name": "STARLINK-36048", "group": "last-30-days", "lat": 34.05048219262665, "lon": 26.287145442536172, "alt_km": 326.0937484184815, "timestamp": "2025-12-02T15:49:05.950162+00:00", "meta": {"OBJECT_NAME": "STARLINK-36048", "OBJECT_ID": "2025-270R", "EPOCH": "2025-12-01T16:00:03.999744", "MEAN_MOTION": 15.8349415, "ECCENTRICITY": 0.00016747, "INCLINATION": 42.9987, "RA_OF_ASC_NODE": 258.8594, "ARG_OF_PERICENTER": 259.5355, "MEAN_ANOMALY": 327.2873, "EPHEMERIS_TYPE": 0, "CLASSIFICATION_TYPE": "U", "NORAD_CAT_ID": 66603, "ELEMENT_SET_NO": 999, "REV_AT_EPOCH": 252, "BSTAR": -0.0081664824, "MEAN_MOTION_DOT": -0.01612048, "MEAN_MOTION_DDOT": 0}, "tle": {"line1": "1 66603U 25270R   25335.66671296 -.01612048  00000+0 -81665-2 0  9999", "line2": "2 66603  42.9987 258.8594 0001674 259.5355 327.2873 15.83494150  2526"}}, "geometry": {"type": "Point", "coordinates": [26.287145442536172, 34.05048219262665]}}, {"type": "Feature", "properties": {"norad_id": 66604, "name": "STARLINK-35977", "group": "last-30-days", "lat": 33.15126388383705, "lon": 28.267304388622193, "alt_km": 326.01408742881813, "timestamp": "2025-12-02T15:49:05.950172+00:00", "meta": {"OBJECT_NAME": "STARLINK-35977", "OBJECT_ID": "2025-270S", "EPOCH": "2025-12-01T16:00:03.999744", "MEAN_MOTION": 15.83526926, "ECCENTRICITY": 0.00016571, "INCLINATION": 42.9987, "RA_OF_ASC_NODE": 258.855, "ARG_OF_PERICENTER": 255.1952, "MEAN_ANOMALY": 333.4134, "EPHEMERIS_TYPE": 0, "CLASSIFICATION_TYPE": "U", "NORAD_CAT_ID": 66604, "ELEMENT_SET_NO": 999, "REV_AT_EPOCH": 262, "BSTAR": -0.0081829034, "MEAN_MOTION_DOT": -0.01617075, "MEAN_MOTION_DDOT": 0}, "tle": {"line1": "1 66604U 25270S   25335.66671296 -.01617075  00000+0 -81829-2 0  9997", "line2": "2 66604  42.9987 258.8550 0001657 255.1952 333.4134 15.83526926  2622"}}, "geometry": {"type": "Point", "coordinates": [28.267304388622193, 33.15126388383705]}}, {"type": "Feature", "properties": {"norad_id": 66605, "name": "STARLINK-36052", "group": "last-30-days", "lat": 32.20858789682378, "lon": 30.232129716280372, "alt_km": 326.1008772323039, "timestamp": "2025-12-02T15:49:05.950182+00:00", "meta": {"OBJECT_NAME": "STARLINK-36052", "OBJECT_ID": "2025-270T", "EPOCH": "2025-12-01T16:00:03.999744", "MEAN_MOTION": 15.83557272, "ECCENTRICITY": 0.00016951, "INCLINATION": 42.9987, "RA_OF_ASC_NODE": 258.8505, "ARG_OF_PERICENTER": 255.4158, "MEAN_ANOMALY": 335.0133, "EPHEMERIS_TYPE": 0, "CLASSIFICATION_TYPE": "U", "NORAD_CAT_ID": 66605, "ELEMENT_SET_NO": 999, "REV_AT_EPOCH": 262, "BSTAR": -0.0082038068, "MEAN_MOTION_DOT": -0.01622765, "MEAN_MOTION_DDOT": 0}, "tle": {"line1": "1 66605U 25270T   25335.66671296 -.01622765  00000+0 -82038-2 0  9993", "line2": "2 66605  42.9987 258.8505 0001695 255.4158 335.0133 15.83557272  2621"}}, "geometry": {"type": "Point", "coordinates": [30.232129716280372, 32.20858789682378]}}, {"type": "Feature", "properties": {"norad_id": 66606, "name": "STARLINK-36063", "group": "last-30-days", "lat": 30.085067042892952, "lon": 34.31480670571279, "alt_km": 326.4897974047335, "timestamp": "2025-12-02T15:49:05.950192+00:00", "meta": {"OBJECT_NAME": "STARLINK-36063", "OBJECT_ID": "2025-270U", "EPOCH": "2025-12-01T16:00:03.999744", "MEAN_MOTION": 15.83600704, "ECCENTRICITY": 0.00017054, "INCLINATION": 42.9988, "RA_OF_ASC_NODE": 258.84, "ARG_OF_PERICENTER": 255.3763, "MEAN_ANOMALY": 339.1559, "EPHEMERIS_TYPE": 0, "CLASSIFICATION_TYPE": "U", "NORAD_CAT_ID": 66606, "ELEMENT_SET_NO": 999, "REV_AT_EPOCH": 262, "BSTAR": -0.0084163154, "MEAN_MOTION_DOT": -0.01662219, "MEAN_MOTION_DDOT": 0}, "tle": {"line1": "1 66606U 25270U   25335.66671296 -.01662219  00000+0 -84163-2 0  9993", "line2": "2 66606  42.9988 258.8400 0001705 255.3763 339.1559 15.83600704  2626"}}, "geometry": {"type": "Point", "coordinates": [34.31480670571279, 30.085067042892952]}}, {"type": "Feature", "properties": {"norad_id": 66607, "name": "STARLINK-35993", "group": "last-30-days", "lat": 31.097897699611835, "lon": 32.4217206793502, "alt_km": 326.2818630013817, "timestamp": "2025-12-02T15:49:05.950203+00:00", "meta": {"OBJECT_NAME": "STARLINK-35993", "OBJECT_ID": "2025-270V", "EPOCH": "2025-12-01T16:00:03.999744", "MEAN_MOTION": 15.83565253, "ECCENTRICITY": 0.00016238, "INCLINATION": 42.9989, "RA_OF_ASC_NODE": 258.8449, "ARG_OF_PERICENTER": 254.1167, "MEAN_ANOMALY": 338.55, "EPHEMERIS_TYPE": 0, "CLASSIFICATION_TYPE": "U", "NORAD_CAT_ID": 66607, "ELEMENT_SET_NO": 999, "REV_AT_EPOCH": 252, "BSTAR": -0.0083314009, "MEAN_MOTION_DOT": -0.01645159, "MEAN_MOTION_DDOT": 0}, "tle": {"line1": "1 66607U 25270V   25335.66671296 -.01645159  00000+0 -83314-2 0  9995", "line2": "2 66607  42.9989 258.8449 0001623 254.1167 338.5500 15.83565253  2522"}}, "geometry": {"type": "Point", "coordinates": [32.4217206793502, 31.097897699611835]}}, {"type": "Feature", "properties": {"norad_id": 66608, "name": "STARLINK-36036", "group": "last-30-days", "lat": 29.051917419227415, "lon": 36.15858407295386, "alt_km": 326.63185274699117, "timestamp": "2025-12-02T15:49:05.950225+00:00", "meta": {"OBJECT_NAME": "STARLINK-36036", "OBJECT_ID": "2025-270W", "EPOCH": "2025-12-01T16:00:03.999744", "MEAN_MOTION": 15.83634547, "ECCENTRICITY": 0.00016477, "INCLINATION": 42.9989, "RA_OF_ASC_NODE": 258.8356, "ARG_OF_PERICENTER": 255.9792, "MEAN_ANOMALY": 340.419, "EPHEMERIS_TYPE": 0, "CLASSIFICATION_TYPE": "U", "NORAD_CAT_ID": 66608, "ELEMENT_SET_NO": 999, "REV_AT_EPOCH": 246, "BSTAR": -0.0085117111, "MEAN_MOTION_DOT": -0.0168082, "MEAN_MOTION_DDOT": 0}, "tle": {"line1": "1 66608U 25270W   25335.66671296 -.01680820  00000+0 -85117-2 0  9993", "line2": "2 66608  42.9989 258.8356 0001647 255.9792 340.4190 15.83634547  2462"}}, "geometry": {"type": "Point", "coordinates": [36.15858407295386, 29.051917419227415]}}, {"type": "Feature", "properties": {"norad_id": 66609, "name": "STARLINK-36034", "group": "last-30-days", "lat": 27.995167744311267, "lon": 37.96282617624138, "alt_km": 326.9023748487607, "timestamp": "2025-12-02T15:49:05.950237+00:00", "meta": {"OBJECT_NAME": "STARLINK-36034", "OBJECT_ID": "2025-270X", "EPOCH": "2025-12-01T16:00:03.999744", "MEAN_MOTION": 15.83665773, "ECCENTRICITY": 0.0001622, "INCLINATION": 42.9989, "RA_OF_ASC_NODE": 258.831, "ARG_OF_PERICENTER": 261.3925, "MEAN_ANOMALY": 336.8441, "EPHEMERIS_TYPE": 0, "CLASSIFICATION_TYPE": "U", "NORAD_CAT_ID": 66609, "ELEMENT_SET_NO": 999, "REV_AT_EPOCH": 246, "BSTAR": -0.0085624239, "MEAN_MOTION_DOT": -0.01691638, "MEAN_MOTION_DDOT": 0}, "tle": {"line1": "1 66609U 25270X   25335.66671296 -.01691638  00000+0 -85624-2 0  9996", "line2": "2 66609  42.9989 258.8310 0001622 261.3925 336.8441 15.83665773  2468"}}, "geometry": {"type": "Point", "coordinates": [37.96282617624138, 27.995167744311267]}}, {"type": "Feature", "properties": {"norad_id": 66610, "name": "STARLINK-35680", "group": "last-30-days", "lat": 26.927821694376398, "lon": 39.7114570415217, "alt_km": 326.9277674169116, "timestamp": "2025-12-02T15:49:05.950251+00:00", "meta": {"OBJECT_NAME": "STARLINK-35680", "OBJECT_ID": "2025-270Y", "EPOCH": "2025-12-01T18:00:02.999808", "MEAN_MOTION": 15.83383649, "ECCENTRICITY": 0.0001703, "INCLINATION": 42.9989, "RA_OF_ASC_NODE": 258.3144, "ARG_OF_PERICENTER": 256.7919, "MEAN_ANOMALY": 98.9941, "EPHEMERIS_TYPE": 0, "CLASSIFICATION_TYPE": "U", "NORAD_CAT_ID": 66610, "ELEMENT_SET_NO": 999, "REV_AT_EPOCH": 274, "BSTAR": -0.0089161775, "MEAN_MOTION_DOT": -0.01731318, "MEAN_MOTION_DDOT": 0}, "tle": {"line1": "1 66610U 25270Y   25335.75003472 -.01731318  00000+0 -89162-2 0  9994", "line2": "2 66610  42.9989 258.3144 0001703 256.7919  98.9941 15.83383649  2742"}}, "geometry": {"type": "Point", "coordinates": [39.7114570415217, 26.927821694376398]}}]}